NORAD_CAT_ID,OBJECT_NAME,OBJECT_TYPE,EPOCH,MEAN_MOTION,ECCENTRICITY,INCLINATION,RA_OF_ASC_NODE,ARG_OF_PERICENTER,MEAN_ANOMALY,BSTAR,MEAN_MOTION_DOT,MEAN_MOTION_DDOT,TLE_LINE0,TLE_LINE1,TLE_LINE2,SEMIMAJOR_AXIS,PERIOD,APOGEE,PERIGEE,DECAYED
54072.0,STARLINK-5144,PAYLOAD,2023-10-25 09:00:01,15.0884758,0.0001508,53.2155,272.8951,87.5517,272.5648,0.00022526,3.3e-05,0.0,0 STARLINK-5144,1 54072U 22136X   23298.37501732  .00003300  00000-0  22526-3 0  9990,2 54072  53.2155 272.8951 0001508  87.5517 272.5648 15.08847580 56542,6917.857,95.437,540.765,538.679,0.0
54072.0,STARLINK-5144,PAYLOAD,2023-10-26 04:04:39,15.08841971,0.0001635,53.216,269.3263,90.1659,269.9521,4.1768e-05,3.77e-06,0.0,0 STARLINK-5144,1 54072U 22136X   23299.16990066  .00000377  00000-0  41768-4 0  9991,2 54072  53.2160 269.3263 0001635  90.1659 269.9521 15.08841971 56664,6917.874,95.437,540.87,538.608,0.0
54072.0,STARLINK-5144,PAYLOAD,2023-10-26 07:15:25,15.08844394,0.0001612,53.2161,268.7302,85.9024,274.2152,3.5287e-05,2.74e-06,0.0,0 STARLINK-5144,1 54072U 22136X   23299.30237860  .00000274  00000-0  35287-4 0  9998,2 54072  53.2161 268.7302 0001612  85.9024 274.2152 15.08844394 56206,6917.867,95.437,540.847,538.617,0.0
54072.0,STARLINK-5144,PAYLOAD,2023-10-26 18:23:07,15.08845673,0.0001496,53.2152,266.6483,89.9714,270.1449,4.5475e-05,4.36e-06,0.0,0 STARLINK-5144,1 54072U 22136X   23299.76605920  .00000436  00000-0  45475-4 0  9994,2 54072  53.2152 266.6483 0001496  89.9714 270.1449 15.08845673 56275,6917.863,95.437,540.763,538.693,0.0
54072.0,STARLINK-5144,PAYLOAD,2023-10-27 07:06:11,15.08860991,0.000147,53.215,264.2706,92.8955,267.2205,0.00046879,7.185e-05,0.0,0 STARLINK-5144,1 54072U 22136X   23300.29597136  .00007185  00000-0  46879-3 0  9990,2 54072  53.2150 264.2706 0001470  92.8955 267.2205 15.08860991 56836,6917.816,95.436,540.698,538.664,0.0
54072.0,STARLINK-5144,PAYLOAD,2023-10-27 15:03:08,15.08836851,0.0002087,53.2154,262.7834,83.5903,276.5326,4.2536e-05,3.89e-06,0.0,0 STARLINK-5144,1 54072U 22136X   23300.62718318  .00000389  00000-0  42536-4 0  9990,2 54072  53.2154 262.7834 0002087  83.5903 276.5326 15.08836851 56880,6917.89,95.438,541.199,538.311,0.0
54072.0,STARLINK-5144,PAYLOAD,2023-10-28 06:57:00,15.0883696,0.0001904,53.2155,259.8101,83.5246,276.5963,6.0131e-05,6.69e-06,0.0,0 STARLINK-5144,1 54072U 22136X   23301.28958559  .00000669  00000-0  60131-4 0  9998,2 54072  53.2155 259.8101 0001904  83.5246 276.5963 15.08836960 56509,6917.89,95.438,541.072,538.438,0.0
54072.0,STARLINK-5144,PAYLOAD,2023-10-28 14:53:55,15.08839182,0.0001932,53.2167,258.3226,84.9978,275.1235,0.00012916,1.768e-05,0.0,0 STARLINK-5144,1 54072U 22136X   23301.62078634  .00001768  00000-0  12916-3 0  9991,2 54072  53.2167 258.3226 0001932  84.9978 275.1235 15.08839182 56553,6917.883,95.438,541.084,538.411,0.0
54072.0,STARLINK-5144,PAYLOAD,2023-10-29 03:37:00,15.0885567,0.0001607,53.2165,255.9413,97.8638,262.2537,0.00059138,9.14e-05,0.0,0 STARLINK-5144,1 54072U 22136X   23302.15069974  .00009140  00000-0  59138-3 0  9996,2 54072  53.2165 255.9413 0001607  97.8638 262.2537 15.08855670 57112,6917.832,95.437,540.809,538.586,0.0
54072.0,STARLINK-5144,PAYLOAD,2023-10-29 06:47:46,15.08861073,0.0001675,53.2163,255.3466,96.8406,263.2777,0.00097278,0.00015237,0.0,0 STARLINK-5144,1 54072U 22136X   23302.28317985  .00015237  00000-0  97278-3 0  9999,2 54072  53.2163 255.3466 0001675  96.8406 263.2777 15.08861073 56658,6917.816,95.436,540.84,538.522,0.0
54072.0,STARLINK-5144,PAYLOAD,2023-10-29 21:06:15,15.08840067,0.0001491,53.2167,252.6711,95.9322,264.184,0.00010629,1.404e-05,0.0,0 STARLINK-5144,1 54072U 22136X   23302.87934430  .00001404  00000-0  10629-3 0  9990,2 54072  53.2167 252.6711 0001491  95.9322 264.1840 15.08840067 57223,6917.88,95.438,540.777,538.714,0.0
54072.0,STARLINK-5144,PAYLOAD,2023-10-30 05:03:10,15.08849256,0.0001399,53.2168,251.1834,106.0912,254.0234,0.00065305,0.00010123,0.0,0 STARLINK-5144,1 54072U 22136X   23303.21054312  .00010123  00000-0  65305-3 0  9990,2 54072  53.2168 251.1834 0001399 106.0912 254.0234 15.08849256 57279,6917.852,95.437,540.685,538.749,0.0
54072.0,STARLINK-5144,PAYLOAD,2023-10-31 03:18:35,15.08847307,0.0001358,53.2167,247.0226,101.6201,258.4944,0.00025316,3.744e-05,0.0,0 STARLINK-5144,1 54072U 22136X   23304.13790724  .00003744  00000-0  25316-3 0  9995,2 54072  53.2167 247.0226 0001358 101.6201 258.4944 15.08847307 57411,6917.858,95.437,540.662,538.784,0.0
54072.0,STARLINK-5144,PAYLOAD,2023-10-31 12:50:53,15.08844092,0.0001199,53.2165,245.24,100.3895,259.7233,0.00039664,6.031e-05,0.0,0 STARLINK-5144,1 54072U 22136X   23304.53534702  .00006031  00000-0  39664-3 0  9994,2 54072  53.2165 245.2400 0001199 100.3895 259.7233 15.08844092 56996,6917.868,95.437,540.562,538.903,0.0
54072.0,STARLINK-5144,PAYLOAD,2023-10-31 20:47:49,15.08838448,0.0001641,53.2181,243.7525,100.5629,259.5548,0.00017472,2.494e-05,0.0,0 STARLINK-5144,1 54072U 22136X   23304.86654946  .00002494  00000-0  17472-3 0  9995,2 54072  53.2181 243.7525 0001641 100.5629 259.5548 15.08838448 57529,6917.885,95.438,540.885,538.615,0.0
54072.0,STARLINK-5144,PAYLOAD,2023-11-01 04:44:45,15.08846411,0.0001406,53.2188,242.269,104.9052,255.2096,0.00031907,4.795e-05,0.0,0 STARLINK-5144,1 54072U 22136X   23305.19774906  .00004795  00000-0  31907-3 0  9996,2 54072  53.2188 242.2690 0001406 104.9052 255.2096 15.08846411 57092,6917.861,95.437,540.698,538.753,0.0
54072.0,STARLINK-5144,PAYLOAD,2023-11-01 20:38:37,15.08838483,0.0001685,53.2188,239.2951,102.9063,257.2117,0.0001186,1.6e-05,0.0,0 STARLINK-5144,1 54072U 22136X   23305.86015246  .00001600  00000-0  11860-3 0  9993,2 54072  53.2188 239.2951 0001685 102.9063 257.2117 15.08838483 57194,6917.885,95.438,540.916,538.584,0.0
54072.0,STARLINK-5144,PAYLOAD,2023-11-02 04:35:32,15.08851473,0.0001289,53.2164,237.8053,92.1031,268.0109,0.00038057,5.776e-05,0.0,0 STARLINK-5144,1 54072U 22136X   23306.19134781  .00005776  00000-0  38057-3 0  9991,2 54072  53.2164 237.8053 0001289  92.1031 268.0109 15.08851473 57724,6917.845,95.437,540.602,538.819,0.0
54072.0,STARLINK-5144,PAYLOAD,2023-11-02 12:32:28,15.08846379,0.0001476,53.217,236.3167,82.9531,277.1629,0.00020411,2.962e-05,0.0,0 STARLINK-5144,1 54072U 22136X   23306.52255060  .00002962  00000-0  20411-3 0  9991,2 54072  53.2170 236.3167 0001476  82.9531 277.1629 15.08846379 57773,6917.861,95.437,540.747,538.705,0.0
54072.0,STARLINK-5144,PAYLOAD,2023-11-03 12:23:15,15.08845594,0.0001332,53.2169,231.859,91.5781,268.5364,7.7384e-05,9.44e-06,0.0,0 STARLINK-5144,1 54072U 22136X   23307.51614749  .00000944  00000-0  77384-4 0  9994,2 54072  53.2169 231.8590 0001332  91.5781 268.5364 15.08845594 57447,6917.863,95.437,540.65,538.807,0.0
54072.0,STARLINK-5144,PAYLOAD,2023-11-04 12:14:02,15.0884159,0.000153,53.2183,227.397,88.1926,271.9242,1.123e-05,-1.09e-06,0.0,0 STARLINK-5144,1 54072U 22136X   23308.50975061 -.00000109  00000-0  11230-4 0  9993,2 54072  53.2183 227.3970 0001530  88.1926 271.9242 15.08841590 57599,6917.876,95.437,540.799,538.682,0.0
54072.0,STARLINK-5144,PAYLOAD,2023-11-05 04:07:53,15.08857754,0.0001525,53.2177,224.4243,86.4932,273.6234,0.00028472,4.248e-05,0.0,0 STARLINK-5144,1 54072U 22136X   23309.17214300  .00004248  00000-0  28472-3 0  9991,2 54072  53.2177 224.4243 0001525  86.4932 273.6234 15.08857754 58179,6917.826,95.436,540.746,538.636,0.0
54072.0,STARLINK-5144,PAYLOAD,2023-11-05 12:04:48,15.0885407,0.000157,53.2182,222.9354,99.3135,260.8035,0.00016216,2.295e-05,0.0,0 STARLINK-5144,1 54072U 22136X   23309.50334323  .00002295  00000-0  16216-3 0  9999,2 54072  53.2182 222.9354 0001570  99.3135 260.8035 15.08854070 57746,6917.837,95.437,540.788,538.616,0.0
54072.0,STARLINK-5144,PAYLOAD,2023-11-05 21:37:06,15.08864884,0.0001479,53.217,221.1516,90.2842,269.8319,0.0003793,5.758e-05,0.0,0 STARLINK-5144,1 54072U 22136X   23309.90077531  .00005758  00000-0  37930-3 0  9991,2 54072  53.2170 221.1516 0001479  90.2842 269.8319 15.08864884 57802,6917.804,95.436,540.692,538.646,0.0
54072.0,STARLINK-5144,PAYLOAD,2023-11-06 00:47:51,15.08893581,0.0001329,53.2164,220.5587,100.8181,259.2961,0.00084614,0.00013224,0.0,0 STARLINK-5144,1 54072U 22136X   23310.03323877  .00013224  00000-0  84614-3 0  9992,2 54072  53.2164 220.5587 0001329 100.8181 259.2961 15.08893581 58302,6917.717,95.434,540.501,538.662,0.0
54072.0,STARLINK-5144,PAYLOAD,2023-11-06 21:27:53,15.0885477,0.0001301,53.216,216.6901,119.7609,240.3513,7.9987e-05,9.86e-06,0.0,0 STARLINK-5144,1 54072U 22136X   23310.89436788  .00000986  00000-0  79987-4 0  9991,2 54072  53.2160 216.6901 0001301 119.7609 240.3513 15.08854770 57959,6917.835,95.437,540.6,538.8,0.0
54072.0,STARLINK-5144,PAYLOAD,2023-11-07 02:14:04,15.08799747,0.0001368,53.2162,215.7997,93.2283,266.8865,-0.001122,-0.0001808,0.0,0 STARLINK-5144,1 54072U 22136X   23311.09310317 -.00018080  00000-0 -11220-2 0  9993,2 54072  53.2162 215.7997 0001368  93.2283 266.8865 15.08799747 58465,6918.003,95.44,540.815,538.922,0.0
54072.0,STARLINK-5144,PAYLOAD,2023-11-07 05:24:50,15.08805478,0.0001303,53.2157,215.2068,92.7486,267.3655,-0.00090738,-0.00014686,0.0,0 STARLINK-5144,1 54072U 22136X   23311.22558709 -.00014686  00000-0 -90738-3 0  9997,2 54072  53.2157 215.2068 0001303  92.7486 267.3655 15.08805478 58003,6917.986,95.44,540.752,538.949,0.0
54072.0,STARLINK-5144,PAYLOAD,2023-11-08 03:40:15,15.08825723,0.0001446,53.2162,211.0424,107.5989,252.5161,-6.527e-05,-1.326e-05,0.0,0 STARLINK-5144,1 54072U 22136X   23312.15295325 -.00001326  00000-0 -65270-4 0  9993,2 54072  53.2162 211.0424 0001446 107.5989 252.5161 15.08825723 58621,6917.924,95.438,540.789,538.789,0.0
54072.0,STARLINK-5144,PAYLOAD,2023-11-08 22:44:53,15.08835616,0.0001265,53.2159,207.4758,96.2737,263.8399,0.00081983,0.00012782,0.0,0 STARLINK-5144,1 54072U 22136X   23312.94784528  .00012782  00000-0  81983-3 0  9992,2 54072  53.2159 207.4758 0001265  96.2737 263.8399 15.08835616 58260,6917.894,95.438,540.634,538.884,0.0
